NORAD_CAT_ID,OBJECT_NAME,OBJECT_TYPE,EPOCH,MEAN_MOTION,ECCENTRICITY,INCLINATION,RA_OF_ASC_NODE,ARG_OF_PERICENTER,MEAN_ANOMALY,BSTAR,MEAN_MOTION_DOT,MEAN_MOTION_DDOT,TLE_LINE0,TLE_LINE1,TLE_LINE2,SEMIMAJOR_AXIS,PERIOD,APOGEE,PERIGEE,DECAYED
51105.0,STARLINK-3350,PAYLOAD,2023-10-16 08:25:45,15.08855703,0.000139,53.2158,258.6685,99.808,260.3069,0.00032237,4.848e-05,0.0,0 STARLINK-3350,1 51105U 22005B   23289.35121679  .00004848  00000-0  32237-3 0  9993,2 51105  53.2158 258.6685 0001390  99.8080 260.3069 15.08855703 97841,6917.832,95.437,540.659,538.736,0.0
51105.0,STARLINK-3350,PAYLOAD,2023-10-17 05:05:46,15.0884394,0.0001779,53.2167,254.8031,95.0676,265.0519,0.00021669,3.163e-05,0.0,0 STARLINK-3350,1 51105U 22005B   23290.21234521  .00003163  00000-0  21669-3 0  9997,2 51105  53.2167 254.8031 0001779  95.0676 265.0519 15.08843940 97970,6917.868,95.437,540.964,538.503,0.0
51105.0,STARLINK-3350,PAYLOAD,2023-10-18 01:45:46,15.08849294,0.000129,53.2167,250.9376,89.5363,270.5777,-0.00029612,-4.999e-05,0.0,0 STARLINK-3350,1 51105U 22005B   23291.07346003 -.00004999  00000-0 -29612-3 0  9997,2 51105  53.2167 250.9376 0001290  89.5363 270.5777 15.08849294 96994,6917.852,95.437,540.609,538.825,0.0
51105.0,STARLINK-3350,PAYLOAD,2023-10-18 04:56:33,15.08844166,0.0001547,53.2168,250.3423,82.8666,277.2502,0.00010363,1.362e-05,0.0,0 STARLINK-3350,1 51105U 22005B   23291.20594440  .00001362  00000-0  10363-3 0  9994,2 51105  53.2168 250.3423 0001547  82.8666 277.2502 15.08844166 98129,6917.868,95.437,540.803,538.662,0.0
51105.0,STARLINK-3350,PAYLOAD,2023-10-18 14:28:52,15.08847215,0.0001495,53.2166,248.559,87.2493,272.867,0.00018972,2.733e-05,0.0,0 STARLINK-3350,1 51105U 22005B   23291.60338365  .00002733  00000-0  18972-3 0  9997,2 51105  53.2166 248.5590 0001495  87.2493 272.8670 15.08847215 97078,6917.858,95.437,540.758,538.689,0.0
51105.0,STARLINK-3350,PAYLOAD,2023-10-19 06:22:43,15.08856904,0.0001451,53.2165,245.5848,91.6751,268.4408,0.00036353,5.505e-05,0.0,0 STARLINK-3350,1 51105U 22005B   23292.26578041  .00005505  00000-0  36353-3 0  9990,2 51105  53.2165 245.5848 0001451  91.6751 268.4408 15.08856904 98287,6917.829,95.436,540.697,538.69,0.0
51105.0,STARLINK-3350,PAYLOAD,2023-10-19 20:41:12,15.08840973,0.0001521,53.2169,242.9084,88.8274,271.2893,6.4706e-05,7.42e-06,0.0,0 STARLINK-3350,1 51105U 22005B   23292.86194650  .00000742  00000-0  64706-4 0  9998,2 51105  53.2169 242.9084 0001521  88.8274 271.2893 15.08840973 98379,6917.877,95.437,540.795,538.69,0.0
51105.0,STARLINK-3350,PAYLOAD,2023-10-20 06:13:30,15.08852056,0.0001727,53.2174,241.1237,94.0964,266.0226,0.00021051,3.065e-05,0.0,0 STARLINK-3350,1 51105U 22005B   23293.25938137  .00003065  00000-0  21051-3 0  9994,2 51105  53.2174 241.1237 0001727  94.0964 266.0226 15.08852056 98433,6917.844,95.437,540.903,538.514,0.0
51105.0,STARLINK-3350,PAYLOAD,2023-10-20 20:31:59,15.08829358,0.0001021,53.2168,238.4498,83.658,276.4529,-4.2403e-05,-9.62e-06,0.0,0 STARLINK-3350,1 51105U 22005B   23293.85555236 -.00000962  00000-0 -42403-4 0  9995,2 51105  53.2168 238.4498 0001021  83.6580 276.4529 15.08829358 98529,6917.913,95.438,540.484,539.072,0.0
51105.0,STARLINK-3350,PAYLOAD,2023-10-21 02:53:32,15.08835779,0.000156,53.2167,237.2592,98.9887,261.1282,-1.114e-05,-4.65e-06,0.0,0 STARLINK-3350,1 51105U 22005B   23294.12051027 -.00000465  00000-0 -11140-4 0  9997,2 51105  53.2167 237.2592 0001560  98.9887 261.1282 15.08835779 97459,6917.893,95.438,540.837,538.679,0.0
51105.0,STARLINK-3350,PAYLOAD,2023-10-21 20:22:46,15.08850409,0.0001519,53.2175,233.9866,104.3577,255.7584,0.00028775,4.296e-05,0.0,0 STARLINK-3350,1 51105U 22005B   23294.84914573  .00004296  00000-0  28775-3 0  9995,2 51105  53.2175 233.9866 0001519 104.3577 255.7584 15.08850409 98673,6917.849,95.437,540.764,538.663,0.0
51105.0,STARLINK-3350,PAYLOAD,2023-10-22 02:44:18,15.08867586,0.0001369,53.216,232.7985,95.2047,264.9102,0.00095882,0.00015016,0.0,0 STARLINK-3350,1 51105U 22005B   23295.11410250  .00015016  00000-0  95882-3 0  9994,2 51105  53.2160 232.7985 0001369  95.2047 264.9102 15.08867586 98716,6917.796,95.436,540.608,538.714,0.0
51105.0,STARLINK-3350,PAYLOAD,2023-10-23 02:35:06,15.08837882,0.0001424,53.217,228.3382,83.371,276.7444,0.0002166,3.161e-05,0.0,0 STARLINK-3350,1 51105U 22005B   23296.10770978  .00003161  00000-0  21660-3 0  9991,2 51105  53.2170 228.3382 0001424  83.3710 276.7444 15.08837882 98868,6917.887,95.438,540.737,538.767,0.0
51105.0,STARLINK-3350,PAYLOAD,2023-10-24 04:01:16,15.08848409,0.0001426,53.2166,223.5819,84.451,275.6645,0.00041585,6.338e-05,0.0,0 STARLINK-3350,1 51105U 22005B   23297.16755062  .00006338  00000-0  41585-3 0  9992,2 51105  53.2166 223.5819 0001426  84.4510 275.6645 15.08848409 99024,6917.855,95.437,540.706,538.733,0.0
51105.0,STARLINK-3350,PAYLOAD,2023-10-24 11:58:12,15.08836611,0.0001589,53.2165,222.093,82.4092,277.708,0.00035778,5.41e-05,0.0,0 STARLINK-3350,1 51105U 22005B   23297.49875238  .00005410  00000-0  35778-3 0  9993,2 51105  53.2165 222.0930 0001589  82.4092 277.7080 15.08836611 99077,6917.891,95.438,540.855,538.656,0.0
51105.0,STARLINK-3350,PAYLOAD,2023-10-25 03:52:03,15.08849562,0.0001667,53.2163,219.1201,81.1451,278.973,0.00032567,4.9e-05,0.0,0 STARLINK-3350,1 51105U 22005B   23298.16115092  .00004900  00000-0  32567-3 0  9999,2 51105  53.2163 219.1201 0001667  81.1451 278.9730 15.08849562 98067,6917.851,95.437,540.869,538.563,0.0
51105.0,STARLINK-3350,PAYLOAD,2023-10-26 03:42:50,15.08843613,0.0001264,53.2151,214.6584,84.6908,275.4229,7.7333e-05,9.43e-06,0.0,0 STARLINK-3350,1 51105U 22005B   23299.15474977  .00000943  00000-0  77333-4 0  9993,2 51105  53.2151 214.6584 0001264  84.6908 275.4229 15.08843613 99322,6917.869,95.437,540.609,538.86,0.0
51105.0,STARLINK-3350,PAYLOAD,2023-10-26 05:18:13,15.08843506,0.0001234,53.2152,214.3615,85.8579,274.2554,9.0283e-05,1.149e-05,0.0,0 STARLINK-3350,1 51105U 22005B   23299.22098955  .00001149  00000-0  90283-4 0  9997,2 51105  53.2152 214.3615 0001234  85.8579 274.2554 15.08843506 98226,6917.87,95.437,540.588,538.881,0.0
51105.0,STARLINK-3350,PAYLOAD,2023-10-26 22:47:28,15.08848313,0.0001578,53.2166,211.0905,82.9404,277.1768,0.00024628,3.635e-05,0.0,0 STARLINK-3350,1 51105U 22005B   23299.94963086  .00003635  00000-0  24628-3 0  9993,2 51105  53.2166 211.0905 0001578  82.9404 277.1768 15.08848313 98335,6917.855,95.437,540.812,538.628,0.0
51105.0,STARLINK-3350,PAYLOAD,2023-10-27 03:33:36,15.08866273,0.0001519,53.2164,210.1969,86.8225,273.2941,0.00076105,0.00011854,0.0,0 STARLINK-3350,1 51105U 22005B   23300.14834429  .00011854  00000-0  76105-3 0  9995,2 51105  53.2164 210.1969 0001519  86.8225 273.2941 15.08866273 99473,6917.8,95.436,540.716,538.614,0.0
51105.0,STARLINK-3350,PAYLOAD,2023-10-27 11:30:33,15.0883898,0.0001975,53.2163,208.7091,89.9052,270.2166,3.4177e-05,2.56e-06,0.0,0 STARLINK-3350,1 51105U 22005B   23300.47955150  .00000256  00000-0  34177-4 0  9994,2 51105  53.2163 208.7091 0001975  89.9052 270.2166 15.08838980 99525,6917.884,95.438,541.115,538.382,0.0
51105.0,STARLINK-3350,PAYLOAD,2023-10-27 22:38:15,15.08837639,0.0002033,53.2159,206.6254,106.6953,253.4263,0.00013957,1.934e-05,0.0,0 STARLINK-3350,1 51105U 22005B   23300.94323288  .00001934  00000-0  13957-3 0  9993,2 51105  53.2159 206.6254 0002033 106.6953 253.4263 15.08837639 98486,6917.888,95.438,541.159,538.346,0.0
51105.0,STARLINK-3350,PAYLOAD,2023-10-28 11:21:20,15.08837642,0.0001604,53.2158,204.2498,91.9489,268.1687,0.00012082,1.635e-05,0.0,0 STARLINK-3350,1 51105U 22005B   23301.47315651  .00001635  00000-0  12082-3 0  9993,2 51105  53.2158 204.2498 0001604  91.9489 268.1687 15.08837642 98568,6917.888,95.438,540.862,538.643,0.0
51105.0,STARLINK-3350,PAYLOAD,2023-10-28 20:53:39,15.08841839,0.0001675,53.2159,202.4642,102.0318,258.0862,0.00024451,3.606e-05,0.0,0 STARLINK-3350,1 51105U 22005B   23301.87059613  .00003606  00000-0  24451-3 0  9993,2 51105  53.2159 202.4642 0001675 102.0318 258.0862 15.08841839 99739,6917.875,95.437,540.899,538.581,0.0
51105.0,STARLINK-3350,PAYLOAD,2023-10-28 22:29:02,15.08843928,0.0001659,53.216,202.167,93.7954,266.3228,0.00025958,3.846e-05,0.0,0 STARLINK-3350,1 51105U 22005B   23301.93683566  .00003846  00000-0  25958-3 0  9999,2 51105  53.2160 202.1670 0001659  93.7954 266.3228 15.08843928 98630,6917.868,95.437,540.881,538.586,0.0
51105.0,STARLINK-3350,PAYLOAD,2023-10-29 03:15:11,15.08854715,0.0001671,53.2158,201.2756,97.8046,262.3136,0.00058844,9.093e-05,0.0,0 STARLINK-3350,1 51105U 22005B   23302.13555335  .00009093  00000-0  58844-3 0  9994,2 51105  53.2158 201.2756 0001671  97.8046 262.3136 15.08854715 99779,6917.835,95.437,540.856,538.544,0.0
51105.0,STARLINK-3350,PAYLOAD,2023-10-29 20:44:26,15.08851843,0.0001733,53.2161,198.0044,108.4217,251.6964,0.00043276,6.608e-05,0.0,0 STARLINK-3350,1 51105U 22005B   23302.86419341  .00006608  00000-0  43276-3 0  9992,2 51105  53.2161 198.0044 0001733 108.4217 251.6964 15.08851843 99885,6917.844,95.437,540.908,538.51,0.0
51105.0,STARLINK-3350,PAYLOAD,2023-10-29 22:19:49,15.08853771,0.0001567,53.2164,197.7071,103.1482,256.9685,0.0004994,7.672e-05,0.0,0 STARLINK-3350,1 51105U 22005B   23302.93043305  .00007672  00000-0  49940-3 0  9999,2 51105  53.2164 197.7071 0001567 103.1482 256.9685 15.08853771 98783,6917.838,95.437,540.787,538.619,0.0
51105.0,STARLINK-3350,PAYLOAD,2023-10-30 20:35:13,15.08837457,0.0001353,53.2154,193.5414,107.7226,252.3913,0.00017117,2.437e-05,0.0,0 STARLINK-3350,1 51105U 22005B   23303.85779807  .00002437  00000-0  17117-3 0  9999,2 51105  53.2154 193.5414 0001353 107.7226 252.3913 15.08837457100035,6917.888,95.438,540.689,538.817,0.0
51105.0,STARLINK-3350,PAYLOAD,2023-10-30 22:10:36,15.08839646,0.0001458,53.2155,193.2437,110.1163,249.9986,0.00024882,3.674e-05,0.0,0 STARLINK-3350,1 51105U 22005B   23303.92403781  .00003674  00000-0  24882-3 0  9993,2 51105  53.2155 193.2437 0001458 110.1163 249.9986 15.08839646 98931,6917.881,95.438,540.755,538.738,0.0
